0 PSLV DEB
1 27654U 01049NR  13283.24119450  .00025859  00000-0  11276-2 0   192
2 27654 097.1771 070.0288 0058033 125.1778 355.4677 15.20595919607784
0 PSLV DEB
1 27654U 01049NR  13285.66433067  .00020901  00000-0  91019-3 0   213
2 27654 097.1762 072.3369 0057933 117.0954 300.0643 15.20689078608154
0 PSLV DEB
1 27654U 01049NR  13288.17632179  .00031640  00000-0  13702-2 0   222
2 27654 097.1764 074.7296 0057935 108.3235 012.2990 15.20793730608538
0 PSLV DEB
1 27654U 01049NR  13289.61348616  .00027376  00000-0  11842-2 0   237
2 27654 097.1764 076.0983 0057956 103.4419 320.6089 15.20859303608757
0 PSLV DEB
1 27654U 01049NR  13290.21650640  .00026894  00000-0  11628-2 0   245
2 27654 097.1767 076.6728 0057890 101.2899 022.2704 15.20882517608840
0 PSLV DEB
1 27654U 01049NR  13291.65155385  .00024174  00000-0  10443-2 0   254
2 27654 097.1779 078.0410 0057598 096.1511 319.7016 15.20948564609065
0 PSLV DEB
1 27654U 01049NR  13293.17657787  .00022323  00000-0  96281-3 0   266
2 27654 097.1783 079.4944 0057659 090.8740 029.9624 15.21014251609298
0 PSLV DEB
1 27654U 01049NR  13294.67805677  .00027057  00000-0  11637-2 0   276
2 27654 097.1782 080.9253 0057601 085.7367 331.5804 15.21074137609529
0 PSLV DEB
1 27654U 01049NR  13295.66459611  .00026364  00000-0  11330-2 0   280
2 27654 097.1783 081.8658 0057492 082.2737 333.8159 15.21112427609679
